     2.10           NAVIGATION DATA                         RINEX VERSION / TYPE
SPIDER V4,0,0,3554                      2015 04 15 06:47    PGM / RUN BY / DATE 
   2.2352D-08  0.0000D+00 -1.1921D-07  1.1921D-07           ION ALPHA           
   1.3926D+05 -1.3107D+05  6.5536D+04 -1.9661D+05           ION BETA            
   -9.313225746155D-10-2.664535259100D-15   147456     1830 DELTA-UTC: A0,A1,T,W
    16                                                      LEAP SECONDS        
                                                            END OF HEADER       
32 15 01 31 07 59 44.0-2.349601127207D-04 8.981260180008D-12 0.000000000000D+00
    0.000000000000D+00-4.593750000000D+00 5.144856984884D-09 1.430695661326D+00
   -2.179294824600D-07 1.133952627424D-02 5.463138222694D-06 5.153575742722D+03
    5.471840000000D+05-2.793967723846D-08 1.324197059654D+00 1.657754182816D-07
    9.467662564548D-01 2.664687500000D+02 1.291465689587D-02-8.304274601301D-09
   -2.867976689469D-10 1.000000000000D+00 1.829000000000D+03 0.000000000000D+00
    2.000000000000D+00 0.000000000000D+00-3.725290298462D-09 0.000000000000D+00
    5.471840000000D+05 0.000000000000D+00
23 15 01 31 08 00  0.0-8.548423647881D-05-2.614797267597D-12 0.000000000000D+00
    3.500000000000D+01 6.687500000000D+00 4.601977465768D-09 2.466855589728D+00
    2.831220626831D-07 9.740652400069D-03 9.734183549881D-06 5.153673051834D+03
    5.472000000000D+05-1.545995473862D-07 2.295102374352D+00-7.078051567078D-08
    9.492545820921D-01 1.870625000000D+02-2.715692312537D+00-7.903543597365D-09
   -4.271606401929D-10 1.000000000000D+00 1.829000000000D+03 0.000000000000D+00
    2.000000000000D+00 0.000000000000D+00-2.002343535423D-08 3.500000000000D+01
    5.472000000000D+05 0.000000000000D+00
17 15 01 31 08 00  0.0-1.531853340566D-04-2.273736754432D-12 0.000000000000D+00
    7.600000000000D+01-1.144375000000D+02 4.133029474218D-09-2.557187100421D+00
   -5.828216671944D-06 1.003948540892D-02 8.800998330116D-06 5.153717784882D+03
    5.472000000000D+05 1.750886440277D-07-8.086148547173D-01-3.352761268616D-08
    9.712909706247D-01 2.115000000000D+02-2.042763713857D+00-7.760323050832D-09
   -4.678766402089D-11 1.000000000000D+00 1.829000000000D+03 0.000000000000D+00
    2.000000000000D+00 0.000000000000D+00-1.071020960808D-08 7.600000000000D+01
    5.472000000000D+05 0.000000000000D+00
20 15 01 31 08 00  0.0 2.845819108188D-04 4.092726157978D-12 0.000000000000D+00
    5.800000000000D+01 1.250000000000D-01 5.683451043126D-09-1.102822716330D+00
    0.000000000000D+00 5.825806292705D-03 5.232170224190D-06 5.155763727188D+03
    5.472000000000D+05-2.048909664154D-08 1.171903254337D+00 1.545995473862D-07
    9.261265948101D-01 2.583437500000D+02 1.237541964499D+00-8.625716141353D-09
   -7.500312176889D-11 1.000000000000D+00 1.829000000000D+03 0.000000000000D+00
    2.000000000000D+00 0.000000000000D+00-8.381903171539D-09 5.800000000000D+01
    5.472000000000D+05 0.000000000000D+00
31 15 01 31 08 00  0.0 3.243428654969D-04-7.958078640513D-13 0.000000000000D+00
    3.000000000000D+01 9.931250000000D+01 4.035168199579D-09 8.589858042523D-01
    5.248934030533D-06 8.310367586091D-03 7.746741175652D-06 5.153721590042D+03
    5.472000000000D+05 1.527369022369D-07-2.915459916128D+00-1.005828380585D-07
    9.766291938060D-01 2.345937500000D+02-5.620081618044D-01-7.891043374286D-09
    2.389385356238D-10 1.000000000000D+00 1.829000000000D+03 0.000000000000D+00
    2.000000000000D+00 0.000000000000D+00-1.350417733192D-08 3.000000000000D+01
    5.472000000000D+05 0.000000000000D+00
20 15 01 31 10 00  0.0 2.846117131412D-04 4.092726157978D-12 0.000000000000D+00
    6.500000000000D+01 2.125000000000D+00 5.766311428346D-09-5.387464418661D-02
    2.048909664154D-07 5.826043779962D-03 5.139037966728D-06 5.155764316559D+03
    5.544000000000D+05-3.166496753693D-08 1.171840261085D+00 2.048909664154D-08
    9.261258487218D-01 2.595000000000D+02 1.237506943703D+00-8.735720591346D-09
   -2.535819991489D-11 1.000000000000D+00 1.829000000000D+03 0.000000000000D+00
    2.000000000000D+00 0.000000000000D+00-8.381903171539D-09 6.500000000000D+01
    5.544000000000D+05 0.000000000000D+00
 1 15 01 31 10 00  0.0-9.552575647831D-06 4.547473508865D-13 0.000000000000D+00
    1.200000000000D+02-5.093750000000D+00 4.453399871096D-09 2.565151448808D+00
   -2.477318048477D-07 3.837786382064D-03 9.708106517792D-06 5.153672807693D+03
    5.544000000000D+05-7.078051567078D-08 2.004422648363D-01-8.195638656616D-08
    9.621900548494D-01 1.923750000000D+02 4.166102626554D-01-7.799610735049D-09
    4.553760979409D-10 1.000000000000D+00 1.829000000000D+03 0.000000000000D+00
    2.000000000000D+00 0.000000000000D+00 5.587935447693D-09 1.200000000000D+02
    5.544000000000D+05 0.000000000000D+00
 3 15 01 31 10 00  0.0 1.822165213525D-04 2.262368070660D-11 0.000000000000D+00
    6.200000000000D+01-2.593750000000D+00 4.936634212527D-09-1.354385469945D+00
   -1.844018697739D-07 9.535541757941D-04 5.291774868965D-06 5.153749380112D+03
    5.544000000000D+05 1.862645149231D-08 1.240760915312D+00 1.303851604462D-08
    9.590722209333D-01 2.748125000000D+02-2.996485325081D+00-8.201055834434D-09
   -3.893019240309D-11 1.000000000000D+00 1.829000000000D+03 0.000000000000D+00
    2.000000000000D+00 0.000000000000D+00 1.396983861923D-09 6.200000000000D+01
    5.544000000000D+05 0.000000000000D+00
 4 15 01 31 10 00  0.0-6.468966603279D-06-6.821210263297D-13 0.000000000000D+00
    1.180000000000D+02-9.125000000000D+00 4.887346527482D-09 2.388283614353D+00
   -5.979090929031D-07 1.101701951120D-02 9.829178452492D-06 5.153735277176D+03
    5.544000000000D+05 1.862645149231D-08 1.808295848495D-01-2.458691596985D-07
    9.398242127765D-01 1.757500000000D+02 1.050559066791D+00-7.923187439474D-09
    4.339466563863D-10 1.000000000000D+00 1.829000000000D+03 0.000000000000D+00
    2.000000000000D+00 0.000000000000D+00-6.519258022308D-09 1.180000000000D+02
    5.544000000000D+05 0.000000000000D+00
11 15 01 31 10 00  0.0-5.546272732317D-04-2.614797267597D-12 0.000000000000D+00
    1.400000000000D+01-4.687500000000D+01 5.853815210344D-09 2.080133490984D+00
   -2.585351467133D-06 1.561395730823D-02 9.985640645027D-06 5.153729404449D+03
    5.544000000000D+05 1.639127731323D-07-1.416466217046D-01-3.371387720108D-07
    8.927057412116D-01 1.478125000000D+02 1.378290701214D+00-8.351419111818D-09
    3.003696458226D-10 1.000000000000D+00 1.829000000000D+03 0.000000000000D+00
    2.000000000000D+00 0.000000000000D+00-1.210719347000D-08 1.400000000000D+01
    5.544000000000D+05 0.000000000000D+00
14 15 01 31 10 00  0.0 9.177299216390D-05-3.524291969370D-12 0.000000000000D+00
    5.000000000000D+01 1.934375000000D+01 4.175888079772D-09-1.687077169079D+00
    9.741634130478D-07 7.727245567366D-03 1.074373722076D-05 5.153780712128D+03
    5.544000000000D+05 2.253800630569D-07 2.364854459052D+00 1.117587089539D-08
    9.675500096787D-01 1.767500000000D+02-1.971312815537D+00-7.674604951546D-09
   -5.396653124379D-10 1.000000000000D+00 1.829000000000D+03 0.000000000000D+00
    2.000000000000D+00 0.000000000000D+00-9.313225746155D-09 5.000000000000D+01
    5.544000000000D+05 0.000000000000D+00
17 15 01 31 10 00  0.0-1.532016322017D-04-2.273736754432D-12 0.000000000000D+00
    7.700000000000D+01-9.465625000000D+01 4.270535036710D-09-1.507297492739D+00
   -4.807487130165D-06 1.004127168562D-02 8.201226592064D-06 5.153711837769D+03
    5.544000000000D+05 1.974403858185D-07-8.086705641006D-01 1.285225152969D-07
    9.712904425113D-01 2.243125000000D+02-2.042499541573D+00-7.834612070212D-09
   -7.286017622565D-11 1.000000000000D+00 1.829000000000D+03 0.000000000000D+00
    2.000000000000D+00 0.000000000000D+00-1.071020960808D-08 7.700000000000D+01
    5.544000000000D+05 0.000000000000D+00
19 15 01 31 10 00  0.0-4.987618885934D-04-1.477928890381D-12 0.000000000000D+00
    6.900000000000D+01-1.108437500000D+02 4.258034369542D-09-2.320962061249D+00
   -5.928799510002D-06 1.090421888512D-02 8.467584848404D-06 5.153694925308D+03
    5.544000000000D+05 7.450580596924D-08-7.586663827572D-01-1.899898052216D-07
    9.684068919999D-01 2.199062500000D+02 5.171568343665D-01-7.811396862678D-09
    3.142987953231D-11 1.000000000000D+00 1.829000000000D+03 0.000000000000D+00
    2.000000000000D+00 0.000000000000D+00-1.490116119385D-08 6.900000000000D+01
    5.544000000000D+05 0.000000000000D+00
23 15 01 31 10 00  0.0-8.550332859159D-05-2.614797267597D-12 0.000000000000D+00
    5.000000000000D+01 9.062500000000D-01 4.611263371146D-09-2.766138425340D+00
   -4.656612873077D-08 9.741857182235D-03 1.002475619316D-05 5.153670810699D+03
    5.544000000000D+05-6.332993507385D-08 2.295045769663D+00-8.940696716309D-08
    9.492517674377D-01 1.804062500000D+02-2.715701123692D+00-7.849255467818D-09
   -4.203746517550D-10 1.000000000000D+00 1.829000000000D+03 0.000000000000D+00
    2.000000000000D+00 0.000000000000D+00-2.002343535423D-08 5.000000000000D+01
    5.544000000000D+05 0.000000000000D+00
28 15 01 31 10 00  0.0 4.162346012890D-04 2.614797267597D-12 0.000000000000D+00
    6.500000000000D+01-1.109375000000D+01 4.273749354411D-09-7.167630268914D-01
   -3.650784492493D-07 1.974290143698D-02 2.825632691383D-06 5.153686351776D+03
    5.544000000000D+05-2.495944499969D-07-1.831955640146D+00 1.471489667892D-07
    9.880966502145D-01 3.454062500000D+02-1.674803928615D+00-8.471424450818D-09
    1.046472145050D-10 1.000000000000D+00 1.829000000000D+03 0.000000000000D+00
    2.000000000000D+00 0.000000000000D+00-1.117587089539D-08 6.500000000000D+01
    5.544000000000D+05 0.000000000000D+00
